ONEWEB-0340             
1 49206U 21083W   24189.30955330  .00000097  00000+0  21262-3 0  9998
2 49206  87.9153 116.7705 0001983  82.6663 277.4695 13.18687212136419
ONEWEB-0341             
1 49207U 21083X   24189.31745308  .00000065  00000+0  13144-3 0  9997
2 49207  87.9152 116.7827 0001323  67.9359 292.1913 13.18687371136435
ONEWEB-0343             
1 49209U 21083Z   24189.31269734  .00000119  00000+0  26942-3 0  9993
2 49209  87.9145 116.7895 0001542  65.7779 294.3514 13.18687840136486
ONEWEB-0344             
1 49210U 21083AA  24189.80329168  .00000039  00000+0  73055-4 0  9996
2 49210  87.8934 101.4520 0001472  83.5223 276.6073 13.13469919139074
ONEWEB-0345             
1 49211U 21083AB  24189.82076107  .00000409  00000+0  10849-2 0  9992
2 49211  87.8930 101.4232 0001461  84.7456 275.3840 13.13469905139084
ONEWEB-0348             
1 49213U 21083AD  24189.34875484  .00000113  00000+0  24508-3 0  9996
2 49213  87.9196  55.6703 0001528 104.7197 255.4106 13.20770716143119
